*******************************************************************************
Ephemeris / WWW_USER Mon Mar 24 08:31:15 2025 Pasadena, USA      / Horizons    
*******************************************************************************
Target body name: (2018 WV1)                      {source: JPL#17}
Center body name: Earth (399)                     {source: DE441}
Center-site name: Mauna Kea
*******************************************************************************
Start time      : A.D. 2018-Nov-08 03:54:00.0000 UT      
Stop  time      : A.D. 2018-Nov-08 16:17:00.0000 UT      
Step-size       : 1 minutes
*******************************************************************************
Target pole/equ : undefined
Target radii    : undefined                                                    
Center geodetic : 204.5278, 19.8260847, 4.21024   {E-lon(deg),Lat(deg),Alt(km)}
Center cylindric: 204.5278, 6006.35451, 2151.0229 {E-lon(deg),Dxy(km),Dz(km)}
Center pole/equ : ITRF93                          {East-longitude positive}
Center radii    : 6378.137, 6378.137, 6356.752 km {Equator_a, b, pole_c}       
Target primary  : Sun
Vis. interferer : MOON (R_eq= 1737.400) km        {source: DE441}
Rel. light bend : Sun                             {source: DE441}
Rel. lght bnd GM: 1.3271E+11 km^3/s^2                                          
Small-body perts: Yes                             {source: SB441-N16}
Atmos refraction: NO (AIRLESS)
RA format       : HMS
Time format     : CAL 
Calendar mode   : Mixed Julian/Gregorian
RTS-only print  : NO       
EOP file        : eop.250321.p250617                                           
EOP coverage    : DATA-BASED 1962-JAN-20 TO 2025-MAR-21. PREDICTS-> 2025-JUN-16
Units conversion: 1 au= 149597870.700 km, c= 299792.458 km/s, 1 day= 86400.0 s 
Table cut-offs 1: Elevation (-90.0deg=NO ),Airmass (>38.000=NO), Daylight (YES)
Table cut-offs 2: Solar elongation (  0.0,180.0=NO ),Local Hour Angle( 0.0=NO )
Table cut-offs 3: RA/DEC angular rate (     0.0=NO )                           
*******************************************************************************
Initial IAU76/J2000 heliocentric ecliptic osculating elements (au, days, deg.):
  EPOCH=  2458458.5 ! 2018-Dec-06.00 (TDB)         Residual RMS= .12928        
   EC= .06869100257422787  QR= .9715505345748198   TP= 2458416.866413563       
   OM= 248.5061090469913   W=  141.3742304527303   IN= 1.905403987972275       
  Equivalent ICRF heliocentric cartesian coordinates (au, au/d):
   X= 2.787163119783287E-01  Y= 8.719775267121872E-01  Z= 3.748421051204766E-01
  VX=-1.676682657337402E-02 VY= 5.516972965834891E-03 VZ= 1.749720915605096E-03
Asteroid physical parameters (km, seconds, rotational period in hours):        
   GM= n.a.                RAD= n.a.               ROTPER= n.a.                
   H= 30.3                 G= .150                 B-V= n.a.                   
                           ALBEDO= n.a.            STYP= n.a.                  
*******************************************************************************
 Date__(UT)__HR:MN     R.A._________(ICRF)_________DEC
******************************************************
$$SOE
 2018-Nov-08 08:00     01 40 38.091244 +22 11 36.90830
 2018-Nov-08 08:01     01 40 37.953446 +22 11 37.09491
 2018-Nov-08 08:02     01 40 37.815542 +22 11 37.27926
 2018-Nov-08 08:03     01 40 37.677532 +22 11 37.46135
 2018-Nov-08 08:04     01 40 37.539420 +22 11 37.64117
 2018-Nov-08 08:05     01 40 37.401205 +22 11 37.81871
 2018-Nov-08 08:06     01 40 37.262892 +22 11 37.99398
 2018-Nov-08 08:07     01 40 37.124481 +22 11 38.16697
 2018-Nov-08 08:08     01 40 36.985974 +22 11 38.33769
 2018-Nov-08 08:09     01 40 36.847373 +22 11 38.50612
 2018-Nov-08 08:10     01 40 36.708680 +22 11 38.67227
 2018-Nov-08 08:11     01 40 36.569898 +22 11 38.83613
 2018-Nov-08 08:12     01 40 36.431027 +22 11 38.99771
 2018-Nov-08 08:13     01 40 36.292070 +22 11 39.15699
 2018-Nov-08 08:14     01 40 36.153029 +22 11 39.31399
 2018-Nov-08 08:15     01 40 36.013905 +22 11 39.46869
 2018-Nov-08 08:16     01 40 35.874701 +22 11 39.62110
 2018-Nov-08 08:17     01 40 35.735418 +22 11 39.77120
 2018-Nov-08 08:18     01 40 35.596059 +22 11 39.91901
 2018-Nov-08 08:19     01 40 35.456625 +22 11 40.06452
 2018-Nov-08 08:20     01 40 35.317118 +22 11 40.20772
 2018-Nov-08 08:21     01 40 35.177540 +22 11 40.34862
 2018-Nov-08 08:22     01 40 35.037893 +22 11 40.48721
 2018-Nov-08 08:23     01 40 34.898179 +22 11 40.62350
 2018-Nov-08 08:24     01 40 34.758399 +22 11 40.75747
 2018-Nov-08 08:25     01 40 34.618557 +22 11 40.88914
 2018-Nov-08 08:26     01 40 34.478653 +22 11 41.01849
 2018-Nov-08 08:27     01 40 34.338690 +22 11 41.14553
 2018-Nov-08 08:28     01 40 34.198669 +22 11 41.27025
 2018-Nov-08 08:29     01 40 34.058593 +22 11 41.39265
 2018-Nov-08 08:30     01 40 33.918463 +22 11 41.51274
 2018-Nov-08 08:31     01 40 33.778281 +22 11 41.63051
 2018-Nov-08 08:32     01 40 33.638049 +22 11 41.74595
 2018-Nov-08 08:33     01 40 33.497770 +22 11 41.85908
 2018-Nov-08 08:34     01 40 33.357445 +22 11 41.96988
 2018-Nov-08 08:35     01 40 33.217076 +22 11 42.07836
 2018-Nov-08 08:36     01 40 33.076664 +22 11 42.18451
 2018-Nov-08 08:37     01 40 32.936213 +22 11 42.28834
 2018-Nov-08 08:38     01 40 32.795724 +22 11 42.38984
 2018-Nov-08 08:39     01 40 32.655198 +22 11 42.48901
 2018-Nov-08 08:40     01 40 32.514638 +22 11 42.58585
 2018-Nov-08 08:41     01 40 32.374045 +22 11 42.68037
 2018-Nov-08 08:42     01 40 32.233422 +22 11 42.77255
 2018-Nov-08 08:43     01 40 32.092771 +22 11 42.86240
 2018-Nov-08 08:44     01 40 31.952093 +22 11 42.94992
 2018-Nov-08 08:45     01 40 31.811390 +22 11 43.03511
 2018-Nov-08 08:46     01 40 31.670665 +22 11 43.11796
 2018-Nov-08 08:47     01 40 31.529919 +22 11 43.19848
 2018-Nov-08 08:48     01 40 31.389154 +22 11 43.27667
 2018-Nov-08 08:49     01 40 31.248372 +22 11 43.35252
 2018-Nov-08 08:50     01 40 31.107576 +22 11 43.42604
 2018-Nov-08 08:51     01 40 30.966766 +22 11 43.49722
 2018-Nov-08 08:52     01 40 30.825946 +22 11 43.56607
 2018-Nov-08 08:53     01 40 30.685116 +22 11 43.63258
 2018-Nov-08 08:54  t  01 40 30.544279 +22 11 43.69675
 2018-Nov-08 08:55     01 40 30.403437 +22 11 43.75859
 2018-Nov-08 08:56     01 40 30.262592 +22 11 43.81809
 2018-Nov-08 08:57     01 40 30.121746 +22 11 43.87525
 2018-Nov-08 08:58     01 40 29.980900 +22 11 43.93008
 2018-Nov-08 08:59     01 40 29.840056 +22 11 43.98257
 2018-Nov-08 09:00     01 40 29.699218 +22 11 44.03272
 2018-Nov-08 09:01     01 40 29.558385 +22 11 44.08054
 2018-Nov-08 09:02     01 40 29.417562 +22 11 44.12602
 2018-Nov-08 09:03     01 40 29.276748 +22 11 44.16917
 2018-Nov-08 09:04     01 40 29.135947 +22 11 44.20998
 2018-Nov-08 09:05     01 40 28.995160 +22 11 44.24845
 2018-Nov-08 09:06     01 40 28.854390 +22 11 44.28459
 2018-Nov-08 09:07     01 40 28.713637 +22 11 44.31839
 2018-Nov-08 09:08     01 40 28.572905 +22 11 44.34986
 2018-Nov-08 09:09     01 40 28.432194 +22 11 44.37900
 2018-Nov-08 09:10     01 40 28.291508 +22 11 44.40580
 2018-Nov-08 09:11     01 40 28.150847 +22 11 44.43026
 2018-Nov-08 09:12     01 40 28.010215 +22 11 44.45240
 2018-Nov-08 09:13     01 40 27.869612 +22 11 44.47220
 2018-Nov-08 09:14     01 40 27.729041 +22 11 44.48967
 2018-Nov-08 09:15     01 40 27.588503 +22 11 44.50481
 2018-Nov-08 09:16     01 40 27.448002 +22 11 44.51762
 2018-Nov-08 09:17     01 40 27.307538 +22 11 44.52810
 2018-Nov-08 09:18     01 40 27.167113 +22 11 44.53626
 2018-Nov-08 09:19     01 40 27.026730 +22 11 44.54209
 2018-Nov-08 09:20     01 40 26.886390 +22 11 44.54559
 2018-Nov-08 09:21     01 40 26.746096 +22 11 44.54676
 2018-Nov-08 09:22     01 40 26.605848 +22 11 44.54561
 2018-Nov-08 09:23     01 40 26.465650 +22 11 44.54214
 2018-Nov-08 09:24     01 40 26.325504 +22 11 44.53634
 2018-Nov-08 09:25     01 40 26.185410 +22 11 44.52823
 2018-Nov-08 09:26     01 40 26.045371 +22 11 44.51779
 2018-Nov-08 09:27     01 40 25.905389 +22 11 44.50504
 2018-Nov-08 09:28     01 40 25.765466 +22 11 44.48997
 2018-Nov-08 09:29     01 40 25.625604 +22 11 44.47258
 2018-Nov-08 09:30     01 40 25.485805 +22 11 44.45288
 2018-Nov-08 09:31     01 40 25.346070 +22 11 44.43087
 2018-Nov-08 09:32     01 40 25.206402 +22 11 44.40654
 2018-Nov-08 09:33     01 40 25.066802 +22 11 44.37991
 2018-Nov-08 09:34     01 40 24.927273 +22 11 44.35096
 2018-Nov-08 09:35     01 40 24.787816 +22 11 44.31971
 2018-Nov-08 09:36     01 40 24.648433 +22 11 44.28616
 2018-Nov-08 09:37     01 40 24.509127 +22 11 44.25030
 2018-Nov-08 09:38     01 40 24.369898 +22 11 44.21214
 2018-Nov-08 09:39     01 40 24.230750 +22 11 44.17168
 2018-Nov-08 09:40     01 40 24.091684 +22 11 44.12892
 2018-Nov-08 09:41     01 40 23.952701 +22 11 44.08387
 2018-Nov-08 09:42     01 40 23.813804 +22 11 44.03652
 2018-Nov-08 09:43     01 40 23.674995 +22 11 43.98688
 2018-Nov-08 09:44     01 40 23.536276 +22 11 43.93495
 2018-Nov-08 09:45     01 40 23.397648 +22 11 43.88073
 2018-Nov-08 09:46     01 40 23.259114 +22 11 43.82423
 2018-Nov-08 09:47     01 40 23.120674 +22 11 43.76544
 2018-Nov-08 09:48     01 40 22.982333 +22 11 43.70437
 2018-Nov-08 09:49     01 40 22.844090 +22 11 43.64102
 2018-Nov-08 09:50     01 40 22.705948 +22 11 43.57540
 2018-Nov-08 09:51     01 40 22.567909 +22 11 43.50750
 2018-Nov-08 09:52     01 40 22.429975 +22 11 43.43732
 2018-Nov-08 09:53     01 40 22.292148 +22 11 43.36488
 2018-Nov-08 09:54     01 40 22.154429 +22 11 43.29017
 2018-Nov-08 09:55     01 40 22.016821 +22 11 43.21320
 2018-Nov-08 09:56     01 40 21.879325 +22 11 43.13396
 2018-Nov-08 09:57     01 40 21.741943 +22 11 43.05246
 2018-Nov-08 09:58     01 40 21.604678 +22 11 42.96871
 2018-Nov-08 09:59     01 40 21.467530 +22 11 42.88270
 2018-Nov-08 10:00     01 40 21.330503 +22 11 42.79444
 2018-Nov-08 10:01     01 40 21.193597 +22 11 42.70393
 2018-Nov-08 10:02     01 40 21.056815 +22 11 42.61118
